[{"OBJECT_NAME":"IRIDIUM 105","OBJECT_ID":"2017-003E","EPOCH":"2026-03-09T19:29:46.518144","MEAN_MOTION":14.34401202,"ECCENTRICITY":0.0002251,"INCLINATION":86.3921,"RA_OF_ASC_NODE":98.4421,"ARG_OF_PERICENTER":92.6468,"MEAN_ANOMALY":267.4986,"EPHEMERIS_TYPE":0,"CLASSIFICATION_TYPE":"U","NORAD_CAT_ID":41921,"ELEMENT_SET_NO":999,"REV_AT_EPOCH":48089,"BSTAR":7.7196279e-5,"MEAN_MOTION_DOT":2.37e-6,"MEAN_MOTION_DDOT":0},{"OBJECT_NAME":"COSMOS 1867 COOLANT","OBJECT_ID":"1987-060T","EPOCH":"2026-03-09T01:55:30.741024","MEAN_MOTION":14.33850225,"ECCENTRICITY":0.00146563,"INCLINATION":65.0063,"RA_OF_ASC_NODE":290.1319,"ARG_OF_PERICENTER":281.4347,"MEAN_ANOMALY":78.5092,"EPHEMERIS_TYPE":0,"CLASSIFICATION_TYPE":"U","NORAD_CAT_ID":39656,"ELEMENT_SET_NO":999,"REV_AT_EPOCH":62232,"BSTAR":0.00014788037,"MEAN_MOTION_DOT":3.12e-6,"MEAN_MOTION_DDOT":0}]
